STARLINK-2617
1 28689C 21044BD  21325.13256970  .00002603  00000-0  17821-3 0  3258
2 28689  53.0531 276.7635 0002184  56.8610  64.4752 15.05588444    14
